[
    {
        "Altitude(m)": 707287.4842429018,
        "Argument of Periapsis(deg)": 0.011390121186627068,
        "Eccentricity": 0.0,
        "Inclination(deg)": 45.0,
        "Latitude(deg)": 45.055437075031705,
        "Longitude(deg)": -101.01838900666458,
        "Mean Anomaly(deg)": 93.35141664748083,
        "RAAN(deg)": 264.98924805854176,
        "Satellite Name": "Constellation 1 1171",
        "Satellite Number": 1171,
        "Semi-Major Axis(m)": 7083131.272910544,
        "Time(s)": 190
    },
    {
        "Altitude(m)": 707286.6766484479,
        "Argument of Periapsis(deg)": 0.011450069192872472,
        "Eccentricity": 0.0,
        "Inclination(deg)": 45.0,
        "Latitude(deg)": 45.051839322566124,
        "Longitude(deg)": -100.93690490686174,
        "Mean Anomaly(deg)": 93.41211778773072,
        "RAAN(deg)": 264.98919146937624,
        "Satellite Name": "Constellation 1 1171",
        "Satellite Number": 1171,
        "Semi-Major Axis(m)": 7083131.272910544,
        "Time(s)": 191
    },
    {
        "Altitude(m)": 707285.8545500843,
        "Argument of Periapsis(deg)": 0.01151001719911788,
        "Eccentricity": 0.0,
        "Inclination(deg)": 45.0,
        "Latitude(deg)": 45.048177455232285,
        "Longitude(deg)": -100.8554316272722,
        "Mean Anomaly(deg)": 93.47281892798061,
        "RAAN(deg)": 264.98913488021066,
        "Satellite Name": "Constellation 1 1171",
        "Satellite Number": 1171,
        "Semi-Major Axis(m)": 7083131.272910544,
        "Time(s)": 192
    },
    {
        "Altitude(m)": 707285.0179526453,
        "Argument of Periapsis(deg)": 0.011569965205363285,
        "Eccentricity": 0.0,
        "Inclination(deg)": 45.0,
        "Latitude(deg)": 45.04445148925214,
        "Longitude(deg)": -100.7739695242707,
        "Mean Anomaly(deg)": 93.53352006823054,
        "RAAN(deg)": 264.98907829104513,
        "Satellite Name": "Constellation 1 1171",
        "Satellite Number": 1171,
        "Semi-Major Axis(m)": 7083131.272910544,
        "Time(s)": 193
    },
    {
        "Altitude(m)": 707284.1668610639,
        "Argument of Periapsis(deg)": 0.01162991321160869,
        "Eccentricity": 0.0,
        "Inclination(deg)": 45.0,
        "Latitude(deg)": 45.0406614411261,
        "Longitude(deg)": -100.69251844974619,
        "Mean Anomaly(deg)": 93.59422120848043,
        "RAAN(deg)": 264.98902170187955,
        "Satellite Name": "Constellation 1 1171",
        "Satellite Number": 1171,
        "Semi-Major Axis(m)": 7083131.272910544,
        "Time(s)": 194
    },
    {
        "Altitude(m)": 707283.3012803537,
        "Argument of Periapsis(deg)": 0.011689861217854095,
        "Eccentricity": 0.0,
        "Inclination(deg)": 45.0,
        "Latitude(deg)": 45.03680732763298,
        "Longitude(deg)": -100.61107875967873,
        "Mean Anomaly(deg)": 93.65492234873031,
        "RAAN(deg)": 264.9889651127139,
        "Satellite Name": "Constellation 1 1171",
        "Satellite Number": 1171,
        "Semi-Major Axis(m)": 7083131.272910544,
        "Time(s)": 195
    },
    {
        "Altitude(m)": 707282.4212156063,
        "Argument of Periapsis(deg)": 0.0117498092240995,
        "Eccentricity": 0.0,
        "Inclination(deg)": 45.0,
        "Latitude(deg)": 45.03288916582961,
        "Longitude(deg)": -100.52965064174947,
        "Mean Anomaly(deg)": 93.7156234889802,
        "RAAN(deg)": 264.9889085235484,
        "Satellite Name": "Constellation 1 1171",
        "Satellite Number": 1171,
        "Semi-Major Axis(m)": 7083131.272910544,
        "Time(s)": 196
    },
    {
        "Altitude(m)": 707281.526672005,
        "Argument of Periapsis(deg)": 0.011809757230344905,
        "Eccentricity": 0.0,
        "Inclination(deg)": 45.0,
        "Latitude(deg)": 45.028906973050304,
        "Longitude(deg)": -100.44823428343393,
        "Mean Anomaly(deg)": 93.77632462923013,
        "RAAN(deg)": 264.9888519343828,
        "Satellite Name": "Constellation 1 1171",
        "Satellite Number": 1171,
        "Semi-Major Axis(m)": 7083131.272910544,
        "Time(s)": 197
    },
    {
        "Altitude(m)": 707280.6176548172,
        "Argument of Periapsis(deg)": 0.011869705236590313,
        "Eccentricity": 0.0,
        "Inclination(deg)": 45.0,
        "Latitude(deg)": 45.02486076690661,
        "Longitude(deg)": -100.36682987199936,
        "Mean Anomaly(deg)": 93.83702576948002,
        "RAAN(deg)": 264.9887953452173,
        "Satellite Name": "Constellation 1 1171",
        "Satellite Number": 1171,
        "Semi-Major Axis(m)": 7083131.272910544,
        "Time(s)": 198
    },
    {
        "Altitude(m)": 707279.6941693987,
        "Argument of Periapsis(deg)": 0.011929653242835719,
        "Eccentricity": 0.0,
        "Inclination(deg)": 45.0,
        "Latitude(deg)": 45.020750565286875,
        "Longitude(deg)": -100.28543759450083,
        "Mean Anomaly(deg)": 93.89772690972993,
        "RAAN(deg)": 264.9887387560517,
        "Satellite Name": "Constellation 1 1171",
        "Satellite Number": 1171,
        "Semi-Major Axis(m)": 7083131.272910544,
        "Time(s)": 199
    }
]